ONEWEB-0346             
1 49212U 21083AC  24085.21963200 -.00000097  00000+0 -27920-3 0  9994
2 49212  87.9178 137.4977 0002495  99.1915 260.9499 13.18685853123993
ONEWEB-0348             
1 49213U 21083AD  24084.95589388  .00000022  00000+0  21598-4 0  9998
2 49213  87.9137  76.4733 0002498 100.2632 259.8783 13.20773787129338
ONEWEB-0350             
1 49214U 21083AE  24085.54316151  .00000408  00000+0  10815-2 0  9997
2 49214  87.8920 122.1934 0002201 105.6777 254.4595 13.13469831125423
ONEWEB-0351             
1 49215U 21083AF  24085.25261213  .00000099  00000+0  21239-3 0  9993
2 49215  87.9137  76.4169 0001216  60.8712 299.2543 13.20769741130643
ONEWEB-0352             
1 49216U 21083AG  24085.14322568 -.00000082  00000+0 -25935-3 0  9994
2 49216  87.8922 122.3014 0001687  96.2094 263.9227 13.13469872125468
ONEWEB-0354             
1 49217U 21083AH  24085.50513286  .00000164  00000+0  37210-3 0  9992
2 49217  87.9138  76.3481 0001898 100.3602 259.7745 13.20773580130715
ONEWEB-0355             
1 49218U 21083AJ  24084.79249004  .00000384  00000+0  10159-2 0  9993
2 49218  87.8922 122.3709 0001864  99.8201 260.3138 13.13469960123993
ONEWEB-0357             
1 49219U 21083AK  24084.89592931  .00000016  00000+0  81693-5 0  9991
2 49219  87.9134  76.4911 0001986  91.6675 268.4686 13.20770794129322
